{"type": "FeatureCollection", "features": [ {"type": "Feature", "properties": {"norad_id": 66658, "name": "2025-274J", "group": "last-30-days", "lat": -23.180336219931746, "lon": -85.61352297350538, "alt_km": 589.7963918119931, "timestamp": "2025-12-09T18:55:16.023738+00:00", "meta": {"OBJECT_NAME": "2025-274J", "OBJECT_ID": "2025-274J", "EPOCH": "2025-12-09T14:11:55.777920", "MEAN_MOTION": 14.92594222, "ECCENTRICITY": 0.001152, "INCLINATION": 97.7384, "RA_OF_ASC_NODE": 270.8551, "ARG_OF_PERICENTER": 291.0278, "MEAN_ANOMALY": 68.9708, "EPHEMERIS_TYPE": 0, "CLASSIFICATION_TYPE": "U", "NORAD_CAT_ID": 66658, "ELEMENT_SET_NO": 999, "REV_AT_EPOCH": 193, "BSTAR": 0.00044076437, "MEAN_MOTION_DOT": 4.485e-05, "MEAN_MOTION_DDOT": 0}, "tle": {"line1": "1 66658U 25274J   25343.59161780  .00004485  00000+0  44076-3 0  9999", "line2": "2 66658  97.7384 270.8551 0011520 291.0278  68.9708 14.92594222  1938"}}, "geometry": {"type": "Point", "coordinates": [-85.61352297350538, -23.180336219931746]}}, {"type": "Feature", "properties": {"norad_id": 66659, "name": "JACK K", "group": "last-30-days", "lat": -14.49775653989035, "lon": -86.93241581816146, "alt_km": 588.943464183697, "timestamp": "2025-12-09T18:55:16.023748+00:00", "meta": {"OBJECT_NAME": "JACK K", "OBJECT_ID": "2025-274K", "EPOCH": "2025-12-09T14:09:36.881280", "MEAN_MOTION": 14.92780033, "ECCENTRICITY": 0.00122716, "INCLINATION": 97.7386, "RA_OF_ASC_NODE": 270.8575, "ARG_OF_PERICENTER": 292.2179, "MEAN_ANOMALY": 67.7739, "EPHEMERIS_TYPE": 0, "CLASSIFICATION_TYPE": "U", "NORAD_CAT_ID": 66659, "ELEMENT_SET_NO": 999, "REV_AT_EPOCH": 193, "BSTAR": 0.00043143897, "MEAN_MOTION_DOT": 4.41e-05, "MEAN_MOTION_DDOT": 0}, "tle": {"line1": "1 66659U 25274K   25343.59001020  .00004410  00000+0  43144-3 0  9993", "line2": "2 66659  97.7386 270.8575 0012271 292.2179  67.7739 14.92780033  1932"}}, "geometry": {"type": "Point", "coordinates": [-86.93241581816146, -14.49775653989035]}}, {"type": "Feature", "properties": {"norad_id": 66660, "name": "K-HERO", "group": "last-30-days", "lat": -7.495728238197908, "lon": -87.91871096734961, "alt_km": 588.2951281207506, "timestamp": "2025-12-09T18:55:16.023758+00:00", "meta": {"OBJECT_NAME": "K-HERO", "OBJECT_ID": "2025-274L", "EPOCH": "2025-12-09T07:41:41.618976", "MEAN_MOTION": 14.92929512, "ECCENTRICITY": 0.00128916, "INCLINATION": 97.7391, "RA_OF_ASC_NODE": 270.596, "ARG_OF_PERICENTER": 293.8465, "MEAN_ANOMALY": 66.1402, "EPHEMERIS_TYPE": 0, "CLASSIFICATION_TYPE": "U", "NORAD_CAT_ID": 66660, "ELEMENT_SET_NO": 999, "REV_AT_EPOCH": 189, "BSTAR": 0.00045811345, "MEAN_MOTION_DOT": 4.705e-05, "MEAN_MOTION_DDOT": 0}, "tle": {"line1": "1 66660U 25274L   25343.32062059  .00004705  00000+0  45811-3 0  9995", "line2": "2 66660  97.7391 270.5960 0012891 293.8465  66.1402 14.92929512  1890"}}, "geometry": {"type": "Point", "coordinates": [-87.91871096734961, -7.495728238197908]}}, {"type": "Feature", "properties": {"norad_id": 66661, "name": "SNUGLITE-III", "group": "last-30-days", "lat": -0.43162052411458723, "lon": -88.88250074237415, "alt_km": 587.6718330667773, "timestamp": "2025-12-09T18:55:16.023767+00:00", "meta": {"OBJECT_NAME": "SNUGLITE-III", "OBJECT_ID": "2025-274M", "EPOCH": "2025-12-09T12:29:21.816096", "MEAN_MOTION": 14.9307221, "ECCENTRICITY": 0.00135441, "INCLINATION": 97.7389, "RA_OF_ASC_NODE": 270.7952, "ARG_OF_PERICENTER": 294.1543, "MEAN_ANOMALY": 65.826, "EPHEMERIS_TYPE": 0, "CLASSIFICATION_TYPE": "U", "NORAD_CAT_ID": 66661, "ELEMENT_SET_NO": 999, "REV_AT_EPOCH": 192, "BSTAR": 0.00033345689, "MEAN_MOTION_DOT": 3.422e-05, "MEAN_MOTION_DDOT": 0}, "tle": {"line1": "1 66661U 25274M   25343.52039139  .00003422  00000+0  33346-3 0  9996", "line2": "2 66661  97.7389 270.7952 0013544 294.1543  65.8260 14.93072210  1925"}}, "geometry": {"type": "Point", "coordinates": [-88.88250074237415, -0.43162052411458723]}}, {"type": "Feature", "properties": {"norad_id": 66662, "name": "2025-274N", "group": "last-30-days", "lat": 2.375787397424466, "lon": -89.26336673385518, "alt_km": 587.5691358531749, "timestamp": "2025-12-09T18:55:16.023777+00:00", "meta": {"OBJECT_NAME": "2025-274N", "OBJECT_ID": "2025-274N", "EPOCH": "2025-12-09T07:39:06.696864", "MEAN_MOTION": 14.93119374, "ECCENTRICITY": 0.0013906, "INCLINATION": 97.7389, "RA_OF_ASC_NODE": 270.598, "ARG_OF_PERICENTER": 294.3348, "MEAN_ANOMALY": 65.6419, "EPHEMERIS_TYPE": 0, "CLASSIFICATION_TYPE": "U", "NORAD_CAT_ID": 66662, "ELEMENT_SET_NO": 999, "REV_AT_EPOCH": 189, "BSTAR": 0.00030732, "MEAN_MOTION_DOT": 3.153e-05, "MEAN_MOTION_DDOT": 0}, "tle": {"line1": "1 66662U 25274N   25343.31882751  .00003153  00000+0  30732-3 0  9997", "line2": "2 66662  97.7389 270.5980 0013906 294.3348  65.6419 14.93119374  1895"}}, "geometry": {"type": "Point", "coordinates": [-89.26336673385518, 2.375787397424466]}}, {"type": "Feature", "properties": {"norad_id": 66663, "name": "KSLV-II R/B", "group": "last-30-days", "lat": -20.470218020653785, "lon": 88.24689113890511, "alt_km": 602.6866214957327, "timestamp": "2025-12-09T18:55:16.023789+00:00", "meta": {"OBJECT_NAME": "KSLV-II R/B", "OBJECT_ID": "2025-274P", "EPOCH": "2025-12-09T08:24:04.565376", "MEAN_MOTION": 14.97241242, "ECCENTRICITY": 0.00501615, "INCLINATION": 97.7404, "RA_OF_ASC_NODE": 270.7232, "ARG_OF_PERICENTER": 331.3188, "MEAN_ANOMALY": 28.5276, "EPHEMERIS_TYPE": 0, "CLASSIFICATION_TYPE": "U", "NORAD_CAT_ID": 66663, "ELEMENT_SET_NO": 999, "REV_AT_EPOCH": 190, "BSTAR": 0.00033078132, "MEAN_MOTION_DOT": 3.867e-05, "MEAN_MOTION_DDOT": 0}, "tle": {"line1": "1 66663U 25274P   25343.35005284  .00003867  00000+0  33078-3 0  9998", "line2": "2 66663  97.7404 270.7232 0050161 331.3188  28.5276 14.97241242  1909"}}, "geometry": {"type": "Point", "coordinates": [88.24689113890511, -20.470218020653785]}}, {"type": "Feature", "properties": {"norad_id": 66664, "name": "SOYUZ-MS 28", "group": "last-30-days", "lat": 45.377927944425736, "lon": -76.3052806020989, "alt_km": 412.8925168935011, "timestamp": "2025-12-09T18:55:16.023800+00:00", "meta": {"OBJECT_NAME": "SOYUZ-MS 28", "OBJECT_ID": "2025-275A", "EPOCH": "2025-12-09T12:14:10.839552", "MEAN_MOTION": 15.49447168, "ECCENTRICITY": 0.00034, "INCLINATION": 51.631, "RA_OF_ASC_NODE": 158.4724, "ARG_OF_PERICENTER": 223.8185, "MEAN_ANOMALY": 136.2534, "EPHEMERIS_TYPE": 0, "CLASSIFICATION_TYPE": "U", "NORAD_CAT_ID": 66664, "ELEMENT_SET_NO": 999, "REV_AT_EPOCH": 128, "BSTAR": 0.00026025969, "MEAN_MOTION_DOT": 0.00014141, "MEAN_MOTION_DDOT": 0}, "tle": {"line1": "1 66664U 25275A   25343.50984768  .00014141  00000+0  26026-3 0  9992", "line2": "2 66664  51.6310 158.4724 0003400 223.8185 136.2534 15.49447168  1287"}}, "geometry": {"type": "Point", "coordinates": [-76.3052806020989, 45.377927944425736]}}, {"type": "Feature", "properties": {"norad_id": 66820, "name": "KOMPSAT-7", "group": "last-30-days", "lat": -82.26928283394943, "lon": 11.146066758349077, "alt_km": 574.2261456239121, "timestamp": "2025-12-09T18:55:16.023810+00:00", "meta": {"OBJECT_NAME": "KOMPSAT-7", "OBJECT_ID": "2025-279A", "EPOCH": "2025-12-09T14:30:32.266368", "MEAN_MOTION": 14.98378319, "ECCENTRICITY": 0.00094634, "INCLINATION": 97.6403, "RA_OF_ASC_NODE": 289.534, "ARG_OF_PERICENTER": 231.7406, "MEAN_ANOMALY": 128.2966, "EPHEMERIS_TYPE": 0, "CLASSIFICATION_TYPE": "U", "NORAD_CAT_ID": 66820, "ELEMENT_SET_NO": 999, "REV_AT_EPOCH": 118, "BSTAR": 0.00038973743, "MEAN_MOTION_DOT": 4.593e-05, "MEAN_MOTION_DDOT": 0}, "tle": {"line1": "1 66820U 25279A   25343.60454012  .00004593  00000+0  38974-3 0  9990", "line2": "2 66820  97.6403 289.5340 0009463 231.7406 128.2966 14.98378319  1186"}}, "geometry": {"type": "Point", "coordinates": [11.146066758349077, -82.26928283394943]}}, {"type": "Feature", "properties": {"norad_id": 66877, "name": "ZQ-3 R/B", "group": "last-30-days", "lat": -16.09979859283673, "lon": 58.07829931033418, "alt_km": 1030.313033398451, "timestamp": "2025-12-09T18:55:16.023823+00:00", "meta": {"OBJECT_NAME": "ZQ-3 R/B", "OBJECT_ID": "2025-282A", "EPOCH": "2025-12-09T14:03:36.956160", "MEAN_MOTION": 14.50884243, "ECCENTRICITY": 0.08147892, "INCLINATION": 56.9538, "RA_OF_ASC_NODE": 69.6744, "ARG_OF_PERICENTER": 214.5064, "MEAN_ANOMALY": 140.0407, "EPHEMERIS_TYPE": 0, "CLASSIFICATION_TYPE": "U", "NORAD_CAT_ID": 66877, "ELEMENT_SET_NO": 999, "REV_AT_EPOCH": 93, "BSTAR": 0.00027721727, "MEAN_MOTION_DOT": 0.01312735, "MEAN_MOTION_DDOT": 7.332797e-06}, "tle": {"line1": "1 66877U 25282A   25343.58584440  .01312735  73328-5  27722-3 0  9991", "line2": "2 66877  56.9538  69.6744 0814789 214.5064 140.0407 14.50884243   934"}}, "geometry": {"type": "Point", "coordinates": [58.07829931033418, -16.09979859283673]}}, {"type": "Feature", "properties": {"norad_id": 66906, "name": "1998-067XS", "group": "last-30-days", "lat": 34.178346445837704, "lon": -55.49614168825858, "alt_km": 409.7321316833377, "timestamp": "2025-12-09T18:55:16.023833+00:00", "meta": {"OBJECT_NAME": "1998-067XS", "OBJECT_ID": "1998-067XS", "EPOCH": "2025-12-09T12:09:24.113376", "MEAN_MOTION": 15.50312686, "ECCENTRICITY": 0.00039811, "INCLINATION": 51.63, "RA_OF_ASC_NODE": 158.4502, "ARG_OF_PERICENTER": 188.2752, "MEAN_ANOMALY": 171.8172, "EPHEMERIS_TYPE": 0, "CLASSIFICATION_TYPE": "U", "NORAD_CAT_ID": 66906, "ELEMENT_SET_NO": 999, "REV_AT_EPOCH": 111, "BSTAR": 0.00059211588, "MEAN_MOTION_DOT": 0.00033864, "MEAN_MOTION_DDOT": 0}, "tle": {"line1": "1 66906U 98067XS  25343.50652909  .00033864  00000+0  59212-3 0  9995", "line2": "2 66906  51.6300 158.4502 0003981 188.2752 171.8172 15.50312686  1110"}}, "geometry": {"type": "Point", "coordinates": [-55.49614168825858, 34.178346445837704]}}]}